[{"spaceTrack":{"CCSDS_OMM_VERS":"2.0","COMMENT":"GENERATED VIA SPACE-TRACK.ORG API","CREATION_DATE":"2021-07-02T17:51:43","ORIGINATOR":"18 SPCS","OBJECT_NAME":"STARLINK-1692","OBJECT_ID":"2020-070L","CENTER_NAME":"EARTH","REF_FRAME":"TEME","TIME_SYSTEM":"UTC","MEAN_ELEMENT_THEORY":"SGP4","EPOCH":"2021-07-02T13:31:55.445952","MEAN_MOTION":15.06401609,"ECCENTRICITY":0.0000958,"INCLINATION":53.0565,"RA_OF_ASC_NODE":298.1694,"ARG_OF_PERICENTER":127.1052,"MEAN_ANOMALY":233.0024,"EPHEMERIS_TYPE":0,"CLASSIFICATION_TYPE":"U","NORAD_CAT_ID":46542,"ELEMENT_SET_NO":999,"REV_AT_EPOCH":4159,"BSTAR":0.00010382,"MEAN_MOTION_DOT":0.00001266,"MEAN_MOTION_DDOT":0,"SEMIMAJOR_AXIS":6925.344,"PERIOD":95.592,"APOAPSIS":547.872,"PERIAPSIS":546.545,"OBJECT_TYPE":"PAYLOAD","RCS_SIZE":"LARGE","COUNTRY_CODE":"US","LAUNCH_DATE":"2020-10-06","SITE":"AFETR","DECAY_DATE":null,"DECAYED":0,"FILE":3068555,"GP_ID":180167009,"TLE_LINE0":"0 STARLINK-1692","TLE_LINE1":"1 46542U 20070L   21183.56383618  .00001266  00000-0  10382-3 0  9997","TLE_LINE2":"2 46542  53.0565 298.1694 0000958 127.1052 233.0024 15.06401609 41591"},"version":"v1.0","launch":"5ef6a2090059c33cee4a828b","longitude":-88.62607350655212,"latitude":-47.557684632922935,"height_km":563.7756071259064,"velocity_kms":7.579002053060419,"id":"5f889669c86e27000615b2bd"},{"spaceTrack":{"CCSDS_OMM_VERS":"2.0","COMMENT":"GENERATED VIA SPACE-TRACK.ORG API","CREATION_DATE":"2021-07-02T17:51:43","ORIGINATOR":"18 SPCS","OBJECT_NAME":"STARLINK-1677","OBJECT_ID":"2020-070AW","CENTER_NAME":"EARTH","REF_FRAME":"TEME","TIME_SYSTEM":"UTC","MEAN_ELEMENT_THEORY":"SGP4","EPOCH":"2021-07-02T13:47:11.464800","MEAN_MOTION":15.06396447,"ECCENTRICITY":0.0001316,"INCLINATION":53.0541,"RA_OF_ASC_NODE":283.123,"ARG_OF_PERICENTER":126.3627,"MEAN_ANOMALY":233.7483,"EPHEMERIS_TYPE":0,"CLASSIFICATION_TYPE":"U","NORAD_CAT_ID":46576,"ELEMENT_SET_NO":999,"REV_AT_EPOCH":4181,"BSTAR":-0.000010481,"MEAN_MOTION_DOT":-0.00000437,"MEAN_MOTION_DDOT":0,"SEMIMAJOR_AXIS":6925.359,"PERIOD":95.592,"APOAPSIS":548.136,"PERIAPSIS":546.313,"OBJECT_TYPE":"PAYLOAD","RCS_SIZE":"LARGE","COUNTRY_CODE":"US","LAUNCH_DATE":"2020-10-06","SITE":"AFETR","DECAY_DATE":null,"DECAYED":0,"FILE":3068555,"GP_ID":180167263,"TLE_LINE0":"0 STARLINK-1677","TLE_LINE1":"1 46576U 20070AW  21183.57443825 -.00000437  00000-0 -10481-4 0  9994","TLE_LINE2":"2 46576  53.0541 283.1230 0001316 126.3627 233.7483 15.06396447 41814"},"version":"v1.0","launch":"5ef6a2090059c33cee4a828b","longitude":-152.6574308753007,"latitude":-7.7473739979361484,"height_km":549.0016866268543,"velocity_kms":7.588378529616488,"id":"5f88966ac86e27000615b2cb"},{"spaceTrack":{"CCSDS_OMM_VERS":"2.0","COMMENT":"GENERATED VIA SPACE-TRACK.ORG API","CREATION_DATE":"2021-07-02T17:51:43","ORIGINATOR":"18 SPCS","OBJECT_NAME":"STARLINK-1743","OBJECT_ID":"2020-070AN","CENTER_NAME":"EARTH","REF_FRAME":"TEME","TIME_SYSTEM":"UTC","MEAN_ELEMENT_THEORY":"SGP4","EPOCH":"2021-07-02T12:49:19.536096","MEAN_MOTION":15.08334648,"ECCENTRICITY":0.0001406,"INCLINATION":53.0562,"RA_OF_ASC_NODE":298.0603,"ARG_OF_PERICENTER":85.5547,"MEAN_ANOMALY":274.5603,"EPHEMERIS_TYPE":0,"CLASSIFICATION_TYPE":"U","NORAD_CAT_ID":46568,"ELEMENT_SET_NO":999,"REV_AT_EPOCH":4159,"BSTAR":0.0042639,"MEAN_MOTION_DOT":0.00067289,"MEAN_MOTION_DDOT":0,"SEMIMAJOR_AXIS":6919.425,"PERIOD":95.47,"APOAPSIS":542.263,"PERIAPSIS":540.318,"OBJECT_TYPE":"PAYLOAD","RCS_SIZE":"LARGE","COUNTRY_CODE":"US","LAUNCH_DATE":"2020-10-06","SITE":"AFETR","DECAY_DATE":null,"DECAYED":0,"FILE":3068555,"GP_ID":180167262,"TLE_LINE0":"0 STARLINK-1743","TLE_LINE1":"1 46568U 20070AN  21183.53425389  .00067289  00000-0  42639-2 0  9990","TLE_LINE2":"2 46568  53.0562 298.0603 0001406  85.5547 274.5603 15.08334648 41593"},"version":"v1.0","launch":"5ef6a2090059c33cee4a828b","longitude":72.29041115215179,"latitude":38.19037231712506,"height_km":543.5553420530541,"velocity_kms":7.595728432734628,"id":"5f88966ac86e27000615b2c8"},{"spaceTrack":{"CCSDS_OMM_VERS":"2.0","COMMENT":"GENERATED VIA SPACE-TRACK.ORG API","CREATION_DATE":"2021-03-06T22:36:11","ORIGINATOR":"18 SPCS","OBJECT_NAME":"STARLINK-1702","OBJECT_ID":"2020-070V","CENTER_NAME":"EARTH","REF_FRAME":"TEME","TIME_SYSTEM":"UTC","MEAN_ELEMENT_THEORY":"SGP4","EPOCH":"2021-03-06T22:05:44.438208","MEAN_MOTION":16.48963428,"ECCENTRICITY":0.0010495,"INCLINATION":52.9647,"RA_OF_ASC_NODE":46.1242,"ARG_OF_PERICENTER":137.6549,"MEAN_ANOMALY":320.6458,"EPHEMERIS_TYPE":0,"CLASSIFICATION_TYPE":"U","NORAD_CAT_ID":46551,"ELEMENT_SET_NO":999,"REV_AT_EPOCH":2469,"BSTAR":0.00077239,"MEAN_MOTION_DOT":0.62648057,"MEAN_MOTION_DDOT":0.000012504,"SEMIMAJOR_AXIS":6520.204,"PERIOD":87.328,"APOAPSIS":148.912,"PERIAPSIS":135.226,"OBJECT_TYPE":"PAYLOAD","RCS_SIZE":"LARGE","COUNTRY_CODE":"US","LAUNCH_DATE":"2020-10-06","SITE":"AFETR","DECAY_DATE":"2021-03-06","DECAYED":1,"FILE":2976929,"GP_ID":172941731,"TLE_LINE0":"0 STARLINK-1702","TLE_LINE1":"1 46551U 20070V   21065.92065322  .62648057  12504-4  77239-3 0  9998","TLE_LINE2":"2 46551  52.9647  46.1242 0010495 137.6549 320.6458 16.48963428 24699"},"version":"v1.0","launch":"5ef6a2090059c33cee4a828b","longitude":null,"latitude":null,"height_km":null,"velocity_kms":null,"id":"5f88966ac86e27000615b2eb"},{"spaceTrack":{"CCSDS_OMM_VERS":"2.0","COMMENT":"GENERATED VIA SPACE-TRACK.ORG API","CREATION_DATE":"2021-07-02T17:51:43","ORIGINATOR":"18 SPCS","OBJECT_NAME":"STARLINK-1659","OBJECT_ID":"2020-070C","CENTER_NAME":"EARTH","REF_FRAME":"TEME","TIME_SYSTEM":"UTC","MEAN_ELEMENT_THEORY":"SGP4","EPOCH":"2021-07-02T12:33:33.080256","MEAN_MOTION":15.0639561,"ECCENTRICITY":0.0001082,"INCLINATION":53.0558,"RA_OF_ASC_NODE":298.3502,"ARG_OF_PERICENTER":121.8684,"MEAN_ANOMALY":238.241,"EPHEMERIS_TYPE":0,"CLASSIFICATION_TYPE":"U","NORAD_CAT_ID":46534,"ELEMENT_SET_NO":999,"REV_AT_EPOCH":4159,"BSTAR":0.000097754,"MEAN_MOTION_DOT":0.00001175,"MEAN_MOTION_DDOT":0,"SEMIMAJOR_AXIS":6925.362,"PERIOD":95.592,"APOAPSIS":547.976,"PERIAPSIS":546.478,"OBJECT_TYPE":"PAYLOAD","RCS_SIZE":"LARGE","COUNTRY_CODE":"US","LAUNCH_DATE":"2020-10-06","SITE":"AFETR","DECAY_DATE":null,"DECAYED":0,"FILE":3068555,"GP_ID":180167008,"TLE_LINE0":"0 STARLINK-1659","TLE_LINE1":"1 46534U 20070C   21183.52329954  .00001175  00000-0  97754-4 0  9995","TLE_LINE2":"2 46534  53.0558 298.3502 0001082 121.8684 238.2410 15.06395610 41595"},"version":"v1.0","launch":"5ef6a2090059c33cee4a828b","longitude":153.43263217761606,"latitude":50.007786237174265,"height_km":552.3365995264558,"velocity_kms":7.592094705203823,"id":"5f88966ac86e27000615b2ef"},{"spaceTrack":{"CCSDS_OMM_VERS":"2.0","COMMENT":"GENERATED VIA SPACE-TRACK.ORG API","CREATION_DATE":"2021-07-02T17:51:43","ORIGINATOR":"18 SPCS","OBJECT_NAME":"STARLINK-1683","OBJECT_ID":"2020-070AY","CENTER_NAME":"EARTH","REF_FRAME":"TEME","TIME_SYSTEM":"UTC","MEAN_ELEMENT_THEORY":"SGP4","EPOCH":"2021-07-02T12:20:14.249184","MEAN_MOTION":15.06398539,"ECCENTRICITY":0.000099,"INCLINATION":53.0567,"RA_OF_ASC_NODE":268.3899,"ARG_OF_PERICENTER":128.0551,"MEAN_ANOMALY":232.0527,"EPHEMERIS_TYPE":0,"CLASSIFICATION_TYPE":"U","NORAD_CAT_ID":46578,"ELEMENT_SET_NO":999,"REV_AT_EPOCH":4201,"BSTAR":-0.000034185,"MEAN_MOTION_DOT":-0.0000079,"MEAN_MOTION_DDOT":0,"SEMIMAJOR_AXIS":6925.353,"PERIOD":95.592,"APOAPSIS":547.904,"PERIAPSIS":546.532,"OBJECT_TYPE":"PAYLOAD","RCS_SIZE":"LARGE","COUNTRY_CODE":"US","LAUNCH_DATE":"2020-10-06","SITE":"AFETR","DECAY_DATE":null,"DECAYED":0,"FILE":3068555,"GP_ID":180168265,"TLE_LINE0":"0 STARLINK-1683","TLE_LINE1":"1 46578U 20070AY  21183.51405381 -.00000790  00000-0 -34185-4 0  9994","TLE_LINE2":"2 46578  53.0567 268.3899 0000990 128.0551 232.0527 15.06398539 42010"},"version":"v1.0","launch":"5ef6a2090059c33cee4a828b","longitude":172.36837871647566,"latitude":18.07723607351389,"height_km":546.9295310294174,"velocity_kms":7.5916580646420835,"id":"5f88966ac86e27000615b308"},{"spaceTrack":{"CCSDS_OMM_VERS":"2.0","COMMENT":"GENERATED VIA SPACE-TRACK.ORG API","CREATION_DATE":"2021-07-02T17:51:43","ORIGINATOR":"18 SPCS","OBJECT_NAME":"STARLINK-1740","OBJECT_ID":"2020-070AL","CENTER_NAME":"EARTH","REF_FRAME":"TEME","TIME_SYSTEM":"UTC","MEAN_ELEMENT_THEORY":"SGP4","EPOCH":"2021-07-02T12:52:07.157280","MEAN_MOTION":15.06397211,"ECCENTRICITY":0.0001168,"INCLINATION":53.0552,"RA_OF_ASC_NODE":278.2942,"ARG_OF_PERICENTER":101.2324,"MEAN_ANOMALY":258.8796,"EPHEMERIS_TYPE":0,"CLASSIFICATION_TYPE":"U","NORAD_CAT_ID":46566,"ELEMENT_SET_NO":999,"REV_AT_EPOCH":4187,"BSTAR":0.0000088049,"MEAN_MOTION_DOT":-0.0000015,"MEAN_MOTION_DDOT":0,"SEMIMAJOR_AXIS":6925.357,"PERIOD":95.592,"APOAPSIS":548.031,"PERIAPSIS":546.413,"OBJECT_TYPE":"PAYLOAD","RCS_SIZE":"LARGE","COUNTRY_CODE":"US","LAUNCH_DATE":"2020-10-06","SITE":"AFETR","DECAY_DATE":null,"DECAYED":0,"FILE":3068555,"GP_ID":180168763,"TLE_LINE0":"0 STARLINK-1740","TLE_LINE1":"1 46566U 20070AL  21183.53619395 -.00000150  00000-0  88049-5 0  9993","TLE_LINE2":"2 46566  53.0552 278.2942 0001168 101.2324 258.8796 15.06397211 41872"},"version":"v1.0","launch":"5ef6a2090059c33cee4a828b","longitude":40.872626199372384,"latitude":28.887737506255597,"height_km":548.4009605185793,"velocity_kms":7.591822064717474,"id":"5f88966ac86e27000615b318"}]